IRIDIUM 26              
1 24903U 97043A   25334.93358643  .00000382  00000+0  12143-3 0  9995
2 24903  86.3972  40.5245 0001995  96.9933 263.1492 14.37312386480690
IRIDIUM 22              
1 24907U 97043E   25334.72332242  .00000381  00000+0  12432-3 0  9993
2 24907  86.3976  44.2955 0002171  97.9886 262.1558 14.36107969480670
DUMMY MASS 1            
1 24925U 97048A   25334.76146890  .00000496  00000+0  52067-4 0  9990
2 24925  86.3353  58.2487 0004250 278.7299  81.3445 14.87165412529887
DUMMY MASS 2            
1 24926U 97048B   25334.75143635  .00000486  00000+0  51248-4 0  9993
2 24926  86.3353  59.8921 0005172 295.6532  64.4158 14.86915918529651
IRIDIUM 29              
1 24944U 97051A   25334.75559970  .00000487  00000+0  15889-3 0  9991
2 24944  86.3955  73.9748 0002282  95.6539 264.4919 14.36645003477184
IRIDIUM 33              
1 24946U 97051C   25334.78283211  .00000383  00000+0  12752-3 0  9999
2 24946  86.3871  73.2400 0005943 247.4735 112.5833 14.35022770476639
IRIDIUM 28              
1 24948U 97051E   25334.76331441  .00000466  00000+0  14891-3 0  9996
2 24948  86.3961  71.3916 0001586 101.6408 258.4967 14.37545587477771
IRIDIUM 36              
1 24967U 97056C   25334.77024579  .00000464  00000+0  14779-3 0  9997
2 24967  86.3952 103.0172 0001943 100.3428 259.7989 14.37765417476159
